NORAD_CAT_ID,OBJECT_NAME,OBJECT_TYPE,EPOCH,MEAN_MOTION,ECCENTRICITY,INCLINATION,RA_OF_ASC_NODE,ARG_OF_PERICENTER,MEAN_ANOMALY,BSTAR,MEAN_MOTION_DOT,MEAN_MOTION_DDOT,TLE_LINE0,TLE_LINE1,TLE_LINE2,SEMIMAJOR_AXIS,PERIOD,APOGEE,PERIGEE,DECAYED
53918.0,STARLINK-5012,PAYLOAD,2023-01-04 14:39:00,15.08832438,0.0001464,53.2173,121.8176,68.1767,291.9381,2.8548e-05,1.66e-06,0.0,0 STARLINK-5012,1 53918U 22119AJ  23004.61042688  .00000166  00000-0  28548-4 0  9999,2 53918  53.2173 121.8176 0001464  68.1767 291.9381 15.08832438 16692,6917.904,95.438,540.781,538.756,0.0
53918.0,STARLINK-5012,PAYLOAD,2023-01-05 00:11:18,15.08846591,0.0001571999999999,53.2181,120.0333,71.0139,289.1024,8.359e-05,1.043e-05,0.0,0 STARLINK-5012,1 53918U 22119AJ  23005.00785582  .00001043  00000-0  83590-4 0  9993,2 53918  53.2181 120.0333 0001572  71.0139 289.1024 15.08846591 16332,6917.86,95.437,540.813,538.638,0.0
53918.0,STARLINK-5012,PAYLOAD,2023-01-05 14:29:46,15.08849422,0.0001256,53.2168,117.355,62.3189,297.793,7.4906e-05,9.05e-06,0.0,0 STARLINK-5012,1 53918U 22119AJ  23005.60400891  .00000905  00000-0  74906-4 0  9993,2 53918  53.2168 117.3550 0001256  62.3189 297.7930 15.08849422 16847,6917.852,95.437,540.585,538.8480000000002,0.0
53918.0,STARLINK-5012,PAYLOAD,2023-01-05 17:40:32,15.08848809,0.0001304,53.2164,116.761,53.9763,306.135,8.0594e-05,9.95e-06,0.0,0 STARLINK-5012,1 53918U 22119AJ  23005.73648719  .00000995  00000-0  80594-4 0  9999,2 53918  53.2164 116.7610 0001304  53.9763 306.1350 15.08848809 16862,6917.853,95.437,540.621,538.816,0.0
53918.0,STARLINK-5012,PAYLOAD,2023-01-06 07:59:02,15.08825298,0.0001499,53.2169,114.0844,72.2035,287.9120000000001,-8.934600000000001e-05,-1.709e-05,0.0,0 STARLINK-5012,1 53918U 22119AJ  23006.33266913 -.00001709  00000-0 -89346-4 0  9998,2 53918  53.2169 114.0844 0001499  72.2035 287.9120 15.08825298 16530,6917.925,95.438,540.827,538.753,0.0
53918.0,STARLINK-5012,PAYLOAD,2023-01-06 15:55:58,15.0882467,0.0001416999999999,53.216,112.5973,63.3424,296.7713,-0.00015674,-2.781e-05,0.0,0 STARLINK-5012,1 53918U 22119AJ  23006.66387490 -.00002781  00000-0 -15674-3 0  9991,2 53918  53.2160 112.5973 0001417  63.3424 296.7713 15.08824670 17002,6917.927,95.439,540.773,538.812,0.0
53918.0,STARLINK-5012,PAYLOAD,2023-01-06 23:52:54,15.0883171,0.0001592,53.2184,111.112,67.8562,292.2599,-0.00013336,-2.409e-05,0.0,0 STARLINK-5012,1 53918U 22119AJ  23006.99507175 -.00002409  00000-0 -13336-3 0  9991,2 53918  53.2184 111.1120 0001592  67.8562 292.2599 15.08831710 17054,6917.906,95.438,540.872,538.669,0.0
53918.0,STARLINK-5012,PAYLOAD,2023-01-07 09:25:12,15.08843794,0.0001472,53.2162,109.3259,60.2897,299.8242,-8.4277e-05,-1.629e-05,0.0,0 STARLINK-5012,1 53918U 22119AJ  23007.39250215 -.00001629  00000-0 -84277-4 0  9992,2 53918  53.2162 109.3259 0001472  60.2897 299.8242 15.08843794 16699,6917.8690000000015,95.437,540.752,538.715,0.0
53918.0,STARLINK-5012,PAYLOAD,2023-01-07 15:46:45,15.08838625,0.000159,53.2173,108.1367,67.1836,292.9323,-8.5376e-05,-1.646e-05,0.0,0 STARLINK-5012,1 53918U 22119AJ  23007.65746660 -.00001646  00000-0 -85376-4 0  9995,2 53918  53.2173 108.1367 0001590  67.1836 292.9323 15.08838625 17151,6917.885,95.438,540.85,538.65,0.0
53918.0,STARLINK-5012,PAYLOAD,2023-01-07 23:43:41,15.08827906,0.0001673,53.2171,106.6498,61.1969,298.9191,-6.6325e-05,-1.343e-05,0.0,0 STARLINK-5012,1 53918U 22119AJ  23007.98867444 -.00001343  00000-0 -66325-4 0  9992,2 53918  53.2171 106.6498 0001673  61.1969 298.9191 15.08827906 16787,6917.917,95.438,540.94,538.625,0.0
53918.0,STARLINK-5012,PAYLOAD,2023-01-08 12:26:45,15.08829964,0.0001296,53.2179,104.2714,56.756,303.3557,0.0001166,1.568e-05,0.0,0 STARLINK-5012,1 53918U 22119AJ  23008.51858793  .00001568  00000-0  11660-3 0  9997,2 53918  53.2179 104.2714 0001296  56.7560 303.3557 15.08829964 16860,6917.911,95.438,540.673,538.88,0.0
53918.0,STARLINK-5012,PAYLOAD,2023-01-08 15:37:31,15.08832891,0.0001471,53.2171,103.6764,61.6866,298.4274,0.00020117,2.915e-05,0.0,0 STARLINK-5012,1 53918U 22119AJ  23008.65106426  .00002915  00000-0  20117-3 0  9995,2 53918  53.2171 103.6764 0001471  61.6866 298.4274 15.08832891 17302,6917.901999999999,95.438,540.785,538.749,0.0
53918.0,STARLINK-5012,PAYLOAD,2023-01-09 12:17:32,15.0884108,0.0001503,53.2157,99.812,57.3738,302.7399,5.668600000000001e-05,6.14e-06,0.0,0 STARLINK-5012,1 53918U 22119AJ  23009.51218611  .00000614  00000-0  56686-4 0  9996,2 53918  53.2157  99.8120 0001503  57.3738 302.7399 15.08841080 17019,6917.877,95.437,540.7819999999998,538.702,0.0
53918.0,STARLINK-5012,PAYLOAD,2023-01-09 15:28:19,15.08838908,0.0001624,53.216,99.2176,53.1897,306.9244,7.0353e-05,8.32e-06,0.0,0 STARLINK-5012,1 53918U 22119AJ  23009.64466724  .00000832  00000-0  70353-4 0  9999,2 53918  53.2160  99.2176 0001624  53.1897 306.9244 15.08838908 17450,6917.884,95.438,540.872,538.625,0.0
53918.0,STARLINK-5012,PAYLOAD,2023-01-10 12:08:20,15.08836404,0.0001534,53.2158,95.3515,56.0836,304.0301,-6.995e-05,-1.401e-05,0.0,0 STARLINK-5012,1 53918U 22119AJ  23010.50579536 -.00001401  00000-0 -69950-4 0  9998,2 53918  53.2158  95.3515 0001534  56.0836 304.0301 15.08836404 17166,6917.891,95.438,540.818,538.695,0.0
53918.0,STARLINK-5012,PAYLOAD,2023-01-11 10:23:43,15.08846758,0.0001641999999999,53.2159,91.1883,55.6584,304.4563,3.8441e-05,3.24e-06,0.0,0 STARLINK-5012,1 53918U 22119AJ  23011.43314402  .00000324  00000-0  38441-4 0  9992,2 53918  53.2159  91.1883 0001642  55.6584 304.4563 15.08846758 17307,6917.86,95.437,540.861,538.589,0.0
53918.0,STARLINK-5012,PAYLOAD,2023-01-11 11:59:06,15.0885109,0.0001515,53.216,90.8906,52.9012,307.2118,8.0948e-05,1.001e-05,0.0,0 STARLINK-5012,1 53918U 22119AJ  23011.49937935  .00001001  00000-0  80948-4 0  9992,2 53918  53.2160  90.8906 0001515  52.9012 307.2118 15.08851090 17735,6917.846,95.437,540.76,538.663,0.0
53918.0,STARLINK-5012,PAYLOAD,2023-01-11 15:09:52,15.08857518,0.0001437,53.2166,90.2943,54.541,305.5716,0.00012319,1.674e-05,0.0,0 STARLINK-5012,1 53918U 22119AJ  23011.63185267  .00001674  00000-0  12319-3 0  9993,2 53918  53.2166  90.2943 0001437  54.5410 305.5716 15.08857518 17331,6917.826999999998,95.436,540.686,538.698,0.0
53918.0,STARLINK-5012,PAYLOAD,2023-01-12 11:49:55,15.08818298,0.0001505,53.2161,86.4303,61.7828,298.3316,-5.7113e-05,-1.196e-05,0.0,0 STARLINK-5012,1 53918U 22119AJ  23012.49300902 -.00001196  00000-0 -57113-4 0  9996,2 53918  53.2161  86.4303 0001505  61.7828 298.3316 15.08818298 17463,6917.946999999999,95.439,540.8530000000002,538.771,0.0
53918.0,STARLINK-5012,PAYLOAD,2023-01-12 21:22:14,15.08828601,0.0001286,53.216,84.6468,55.6715,304.4398,-5.9167e-05,-1.229e-05,0.0,0 STARLINK-5012,1 53918U 22119AJ  23012.89044662 -.00001229  00000-0 -59167-4 0  9996,2 53918  53.2160  84.6468 0001286  55.6715 304.4398 15.08828601 17522,6917.915,95.438,540.67,538.891,0.0
53918.0,STARLINK-5012,PAYLOAD,2023-01-13 11:40:41,15.0884935,0.0001296,53.2165,81.9685,67.7437,292.3692,-4.8895e-05,-1.066e-05,0.0,0 STARLINK-5012,1 53918U 22119AJ  23013.48659545 -.00001066  00000-0 -48895-4 0  9999,2 53918  53.2165  81.9685 0001296  67.7437 292.3692 15.08849350 17610,6917.852,95.437,540.613,538.82,0.0
53918.0,STARLINK-5012,PAYLOAD,2023-01-13 21:13:01,15.08841136,0.0001312,53.2164,80.1843,72.417,287.6965,-0.00010106,-1.896e-05,0.0,0 STARLINK-5012,1 53918U 22119AJ  23013.88404231 -.00001896  00000-0 -10106-3 0  9997,2 53918  53.2164  80.1843 0001312  72.4170 287.6965 15.08841136 18099,6917.877,95.437,540.65,538.8340000000001,0.0
53918.0,STARLINK-5012,PAYLOAD,2023-01-14 03:34:34,15.08822482,0.0001303,53.2168,78.9964,77.2323,282.8815,0.00012744,1.74e-05,0.0,0 STARLINK-5012,1 53918U 22119AJ  23014.14901092  .00001740  00000-0  12744-3 0  9990,2 53918  53.2168  78.9964 0001303  77.2323 282.8815 15.08822482 17717,6917.934,95.439,540.7,538.898,0.0
53918.0,STARLINK-5012,PAYLOAD,2023-01-14 09:56:06,15.08833337,0.0001249,53.2157,77.8074,76.6829,283.4302,8.458200000000001e-05,1.058e-05,0.0,0 STARLINK-5012,1 53918U 22119AJ  23014.41396834  .00001058  00000-0  84582-4 0  9994,2 53918  53.2157  77.8074 0001249  76.6829 283.4302 15.08833337 17751,6917.901,95.438,540.63,538.9019999999999,0.0
53918.0,STARLINK-5012,PAYLOAD,2023-01-14 13:06:52,15.08846551,0.0001146,53.2161,77.2083,77.2657,282.8463,0.00016386,2.321e-05,0.0,0 STARLINK-5012,1 53918U 22119AJ  23014.54643657  .00002321  00000-0  16386-3 0  9996,2 53918  53.2161  77.2083 0001146  77.2657 282.8463 15.08846551 17777,6917.86,95.437,540.518,538.933,0.0
53918.0,STARLINK-5012,PAYLOAD,2023-01-15 03:25:22,15.08825536,0.0001382,53.2167,74.536,87.9116,272.2034,-2.5997000000000003e-06,-3.29e-06,0.0,0 STARLINK-5012,1 53918U 22119AJ  23015.14262101 -.00000329  00000-0 -25997-5 0  9992,2 53918  53.2167  74.5360 0001382  87.9116 272.2034 15.08825536 17868,6917.925,95.438,540.746,538.8340000000001,0.0
53918.0,STARLINK-5012,PAYLOAD,2023-01-15 20:54:36,15.08835507,0.0002103,53.2169,71.2661,85.9952,274.128,2.4906e-05,1.08e-06,0.0,0 STARLINK-5012,1 53918U 22119AJ  23015.87125785  .00000108  00000-0  24906-4 0  9999,2 53918  53.2169  71.2661 0002103  85.9952 274.1280 15.08835507 18398,6917.894,95.438,541.214,538.304,0.0
53918.0,STARLINK-5012,PAYLOAD,2023-01-15 22:29:58,15.08842677,0.0001250999999999,53.2176,70.9695,86.0789,274.0346,9.7978e-05,1.272e-05,0.0,0 STARLINK-5012,1 53918U 22119AJ  23015.93748822  .00001272  00000-0  97978-4 0  9991,2 53918  53.2176  70.9695 0001251  86.0789 274.0346 15.08842677 17984,6917.871999999999,95.437,540.6030000000001,538.872,0.0
53918.0,STARLINK-5012,PAYLOAD,2023-01-16 09:37:39,15.08859087,0.0001295,53.2176,68.8862,91.0456,269.0684,0.00018176,2.607e-05,0.0,0 STARLINK-5012,1 53918U 22119AJ  23016.40115236  .00002607  00000-0  18176-3 0  9996,2 53918  53.2176  68.8862 0001295  91.0456 269.0684 15.08859087 18052,6917.821999999999,95.436,540.5830000000001,538.7909999999999,0.0
